STARLINK-31875          
1 59674U 24084W   26068.29206487 -.00000675  00000+0 -15010-4 0  9999
2 59674  43.0042  40.4650 0001101 280.4171  79.6557 15.27574094104357
BLUEBON                 
1 62688U 25009CH  26068.70316231  .00010452  00000+0  37313-3 0  9992
2 62688  97.4017 152.2033 0001193  43.3900 316.7434 15.29047253 63767
