[{"OBJECT_NAME":"STARLINK-31875","OBJECT_ID":"2024-084W","EPOCH":"2026-03-09T07:00:34.404768","MEAN_MOTION":15.27574094,"ECCENTRICITY":0.00011017,"INCLINATION":43.0042,"RA_OF_ASC_NODE":40.465,"ARG_OF_PERICENTER":280.4171,"MEAN_ANOMALY":79.6557,"EPHEMERIS_TYPE":0,"CLASSIFICATION_TYPE":"U","NORAD_CAT_ID":59674,"ELEMENT_SET_NO":999,"REV_AT_EPOCH":10435,"BSTAR":-1.5010325e-5,"MEAN_MOTION_DOT":-6.75e-6,"MEAN_MOTION_DDOT":0},{"OBJECT_NAME":"BLUEBON","OBJECT_ID":"2025-009CH","EPOCH":"2026-03-09T16:52:33.225312","MEAN_MOTION":15.29047254,"ECCENTRICITY":0.00011933,"INCLINATION":97.4017,"RA_OF_ASC_NODE":152.2033,"ARG_OF_PERICENTER":43.39,"MEAN_ANOMALY":316.7434,"EPHEMERIS_TYPE":0,"CLASSIFICATION_TYPE":"U","NORAD_CAT_ID":62688,"ELEMENT_SET_NO":999,"REV_AT_EPOCH":6376,"BSTAR":0.00037313027,"MEAN_MOTION_DOT":0.00010452,"MEAN_MOTION_DDOT":0}]
